H1 CPF 01  gfz 2022 10 10 12  7832 tandemx   
H2 1003001  6202 36605    2022 10 10 12 59 42 2022 10 15 00 00 42   120 1 1  0 0 0
H9
10 0 59863  59742.000000  0    6259850.039   2203069.293   1841569.489
10 0 59863  59862.000000  0    6033867.274   1935005.139   2694417.602
10 0 59863  59982.000000  0    5697430.750   1638025.806   3499815.088
10 0 59863  60102.000000  0    5255991.651   1319213.226   4243585.917
10 0 59863  60222.000000  0    4716972.674    985919.783   4912651.781
10 0 59863  60342.000000  0    4089635.200    645603.977   5495262.317
10 0 59863  60462.000000  0    3384910.581    305666.508   5981200.807
10 0 59863  60582.000000  0    2615199.741    -26707.478   6361957.849
10 0 59863  60702.000000  0    1794149.532   -344696.594   6630873.661
10 0 59863  60822.000000  0     936407.326   -641980.704   6783249.818
10 0 59863  60942.000000  0      57356.550   -912865.278   6816426.901
10 0 59863  61062.000000  0    -827159.770  -1152389.429   6729826.880
10 0 59863  61182.000000  0   -1701123.761  -1356416.858   6524961.758
10 0 59863  61302.000000  0   -2548631.170  -1521707.053   6205407.710
10 0 59863  61422.000000  0   -3354179.048  -1645965.991   5776747.801
10 0 59863  61542.000000  0   -4102952.684  -1727877.492   5246482.476
10 0 59863  61662.000000  0   -4781103.653  -1767114.057   4623903.771
10 0 59863  61782.000000  0   -5376013.157  -1764325.646   3919936.853
10 0 59863  61902.000000  0   -5876534.427  -1721106.292   3146950.781
10 0 59863  62022.000000  0   -6273209.876  -1639940.022   2318543.101
10 0 59863  62142.000000  0   -6558460.428  -1524127.987   1449300.113
10 0 59863  62262.000000  0   -6726739.151  -1377697.004    554533.515
10 0 59863  62382.000000  0   -6774643.461  -1205291.538   -349997.141
10 0 59863  62502.000000  0   -6700984.636  -1012052.351  -1248371.153
10 0 59863  62622.000000  0   -6506812.113   -803485.138  -2124795.804
10 0 59863  62742.000000  0   -6195393.152   -585322.950  -2963890.677
10 0 59863  62862.000000  0   -5772149.047   -363386.235  -3750963.144
10 0 59863  62982.000000  0   -5244548.181   -143441.988  -4472267.690
10 0 59863  63102.000000  0   -4621960.910     68932.995  -5115243.213
10 0 59863  63222.000000  0   -3915481.114    268481.224  -5668725.961
10 0 59863  63342.000000  0   -3137717.305    450383.143  -6123134.104
10 0 59863  63462.000000  0   -2302560.402    610363.198  -6470621.045
10 0 59863  63582.000000  0   -1424933.613    744781.351  -6705199.443
10 0 59863  63702.000000  0    -520526.381    850709.125  -6822834.011
10 0 59863  63822.000000  0     394480.954    925988.982  -6821501.765
10 0 59863  63942.000000  0    1303698.118    969275.471  -6701223.972
10 0 59863  64062.000000  0    2190812.466    980058.734  -6464068.105
10 0 59863  64182.000000  0    3039875.956    958669.834  -6114115.927
10 0 59863  64302.000000  0    3835587.680    906267.506  -5657399.677
10 0 59863  64422.000000  0    4563567.146    824806.047  -5101808.339
10 0 59863  64542.000000  0    5210616.706    716985.490  -4456963.426
10 0 59863  64662.000000  0    5764967.514    586184.730  -3734062.957
10 0 59863  64782.000000  0    6216502.572    436377.969  -2945695.966
10 0 59863  64902.000000  0    6556953.069    272036.801  -2105630.309
10 0 59863  65022.000000  0    6780063.750     98019.264  -1228574.664
10 0 59863  65142.000000  0    6881719.409    -80551.354   -329918.740
10 0 59863  65262.000000  0    6860030.305   -258414.575    574541.003
10 0 59863  65382.000000  0    6715374.705   -430305.563   1468886.218
10 0 59863  65502.000000  0    6450395.438   -591088.692   2337365.623
10 0 59863  65622.000000  0    6069950.203   -735888.317   3164682.334
10 0 59863  65742.000000  0    5581015.902   -860213.353   3936270.364
10 0 59863  65862.000000  0    4992553.699   -960072.291   4638555.578
10 0 59863  65982.000000  0    4315334.787  -1032077.108   5259197.457
10 0 59863  66102.000000  0    3561732.583  -1073531.036   5787304.724
10 0 59863  66222.000000  0    2745487.671  -1082500.139   6213622.911
10 0 59863  66342.000000  0    1881450.175  -1057867.539   6530690.980
10 0 59863  66462.000000  0     985305.164   -999369.052   6732966.913
10 0 59863  66582.000000  0      73284.093   -907608.929   6816919.052
10 0 59863  66702.000000  0    -838129.882   -784055.828   6781082.555
10 0 59863  66822.000000  0   -1732498.562   -631019.580   6626082.595
10 0 59863  66942.000000  0   -2593723.675   -451608.236   6354623.938
10 0 59863  67062.000000  0   -3406335.767   -249666.504   5971447.650
10 0 59863  67182.000000  0   -4155774.200    -29696.404   5483254.412
10 0 59863  67302.000000  0   -4828653.189    203238.540   4898593.590
10 0 59863  67422.000000  0   -5413008.006    443623.539   4227718.872
10 0 59863  67542.000000  0   -5898516.534    685615.775   3482412.128
10 0 59863  67662.000000  0   -6276690.657    923177.902   2675778.827
10 0 59863  67782.000000  0   -6541034.706   1150218.993   1822017.113
10 0 59863  67902.000000  0   -6687165.747   1360738.995    936164.373
10 0 59863  68022.000000  0   -6712892.939   1548973.762     33825.510
10 0 59863  68142.000000  0   -6618251.589   1709536.696   -869111.136
10 0 59863  68262.000000  0   -6405491.677   1837552.534  -1756762.410
10 0 59863  68382.000000  0   -6079023.052   1928781.049  -2613537.387
10 0 59863  68502.000000  0   -5645317.285   1979727.650  -3424418.593
10 0 59863  68622.000000  0   -5112768.235   1987736.657  -4175229.099
10 0 59863  68742.000000  0   -4491517.303   1951065.779  -4852879.242
10 0 59863  68862.000000  0   -3793248.578   1868940.731  -5445589.529
10 0 59863  68982.000000  0   -3030959.997   1741589.276  -5943086.295
10 0 59863  69102.000000  0   -2218715.974   1570254.182  -6336769.644
10 0 59863  69222.000000  0   -1371384.256   1357185.071  -6619851.181
10 0 59863  69342.000000  0    -504364.318   1105609.406  -6787458.634
10 0 59863  69462.000000  0     366687.504    819683.662  -6836709.854
10 0 59863  69582.000000  0    1226132.743    504426.170  -6766757.760
10 0 59863  69702.000000  0    2058626.072    165630.783  -6578805.058
10 0 59863  69822.000000  0    2849383.122   -190236.776  -6276084.949
10 0 59863  69942.000000  0    3584439.025   -556158.061  -5863811.890
10 0 59863  70062.000000  0    4250892.539   -924695.600  -5349099.747
10 0 59863  70182.000000  0    4837133.851  -1288138.922  -4740851.401
10 0 59863  70302.000000  0    5333053.134  -1638661.741  -4049616.340
10 0 59863  70422.000000  0    5730223.605  -1968485.913  -3287417.668
10 0 59863  70542.000000  0    6022055.677  -2270049.555  -2467550.461
10 0 59863  70662.000000  0    6203917.703  -2536175.716  -1604353.621
10 0 59863  70782.000000  0    6273219.595  -2760237.025   -712959.471
10 0 59863  70902.000000  0    6229457.436  -2936312.510    190974.503
10 0 59863  71022.000000  0    6074216.654  -3059332.386   1091546.686
10 0 59863  71142.000000  0    5811133.927  -3125206.891   1972899.888
10 0 59863  71262.000000  0    5445815.207  -3130935.315   2819510.298
10 0 59863  71382.000000  0    4985715.025  -3074692.673   3616468.846
10 0 59863  71502.000000  0    4439979.186  -2955890.450   4349749.614
10 0 59863  71622.000000  0    3819257.641  -2775212.613   5006459.558
10 0 59863  71742.000000  0    3135488.558  -2534625.482   5575067.202
10 0 59863  71862.000000  0    2401660.427  -2237359.497   6045602.208
10 0 59863  71982.000000  0    1631559.535  -1887865.628   6409825.433
10 0 59863  72102.000000  0     839506.688  -1491747.314   6661367.492
10 0 59863  72222.000000  0      40088.192  -1055668.790   6795834.080
10 0 59863  72342.000000  0    -752113.140   -587241.479   6810877.424
10 0 59863  72462.000000  0   -1522782.898    -94890.964   6706234.096
10 0 59863  72582.000000  0   -2258132.613    412294.235   6483729.403
10 0 59863  72702.000000  0   -2945145.856    924729.721   6147247.894
10 0 59863  72822.000000  0   -3571809.609   1432515.268   5702670.206
10 0 59863  72942.000000  0   -4127327.737   1925625.261   5157776.797
10 0 59863  73062.000000  0   -4602313.104   2394106.818   4522118.316
10 0 59863  73182.000000  0   -4988953.326   2828281.735   3806852.337
10 0 59863  73302.000000  0   -5281145.851   3218947.224   3024550.115
10 0 59863  73422.000000  0   -5474600.883   3557571.573   2188976.694
10 0 59863  73542.000000  0   -5566909.548   3836481.232   1314846.832
10 0 59863  73662.000000  0   -5557574.118   4049032.893    417559.437
10 0 59863  73782.000000  0   -5447998.470   4189765.857   -487081.362
10 0 59863  73902.000000  0   -5241441.132   4254531.861  -1383153.011
10 0 59863  74022.000000  0   -4942930.616   4240598.992  -2254904.648
10 0 59863  74142.000000  0   -4559143.786   4146724.997  -3087042.538
10 0 59863  74262.000000  0   -4098252.761   3973199.696  -3865002.959
10 0 59863  74382.000000  0   -3569744.757   3721856.057  -4575207.449
10 0 59863  74502.000000  0   -2984220.194   3396050.863  -5205295.752
10 0 59863  74622.000000  0   -2353175.848   3000615.888  -5744332.760
10 0 59863  74742.000000  0   -1688776.422   2541781.952  -6182989.725
10 0 59863  74862.000000  0   -1003618.120   2027075.515  -6513694.757
10 0 59863  74982.000000  0    -310491.484   1465192.395  -6730751.256
10 0 59863  75102.000000  0     377853.263    865850.529  -6830425.782
10 0 59863  75222.000000  0    1048934.470    239624.530  -6811005.849
10 0 59863  75342.000000  0    1690761.113   -402237.291  -6672826.913
10 0 59863  75462.000000  0    2292041.697  -1048010.222  -6418265.672
10 0 59863  75582.000000  0    2842378.805  -1685701.633  -6051704.047
10 0 59863  75702.000000  0    3332447.037  -2303267.926  -5579461.648
10 0 59863  75822.000000  0    3754152.816  -2888838.869  -5009699.315
10 0 59863  75942.000000  0    4100772.451  -3430946.155  -4352288.205
10 0 59863  76062.000000  0    4367063.197  -3918748.327  -3618648.426
10 0 59863  76182.000000  0    4549348.639  -4342249.919  -2821560.633
99
